{
  "type": "FeatureCollection",
  "name": "airspaces",
  "note": "Sample, simplified VFR airspace for development. NOT FOR NAVIGATION.",
  "features": [
    {
      "type": "Feature",
      "properties": {
        "name": "Schiphol CTR",
        "category": "ctr",
        "class": "C",
        "lower": "GND",
        "upper": "3000 ft AMSL"
      },
      "geometry": {
        "type": "Polygon",
        "coordinates": [
          [
            [4.45, 52.18],
            [5.05, 52.18],
            [5.05, 52.45],
            [4.45, 52.45],
            [4.45, 52.18]
          ]
        ]
      }
    },
    {
      "type": "Feature",
      "properties": {
        "name": "Amsterdam TMA",
        "category": "tma",
        "class": "A",
        "lower": "1500 ft AMSL",
        "upper": "FL095"
      },
      "geometry": {
        "type": "Polygon",
        "coordinates": [
          [
            [4.05, 51.95],
            [5.65, 51.95],
            [5.65, 52.75],
            [4.05, 52.75],
            [4.05, 51.95]
          ]
        ]
      }
    },
    {
      "type": "Feature",
      "properties": {
        "name": "EHR4 De Peel",
        "category": "restricted",
        "class": "R",
        "lower": "GND",
        "upper": "FL065"
      },
      "geometry": {
        "type": "Polygon",
        "coordinates": [
          [
            [5.85, 51.45],
            [6.05, 51.45],
            [6.12, 51.58],
            [5.92, 51.62],
            [5.78, 51.52],
            [5.85, 51.45]
          ]
        ]
      }
    },
    {
      "type": "Feature",
      "properties": {
        "name": "Rotterdam CTR",
        "category": "ctr",
        "class": "C",
        "lower": "GND",
        "upper": "1500 ft AMSL"
      },
      "geometry": {
        "type": "Polygon",
        "coordinates": [
          [
            [4.25, 51.86],
            [4.66, 51.86],
            [4.66, 52.04],
            [4.25, 52.04],
            [4.25, 51.86]
          ]
        ]
      }
    }
  ]
}
